{
  "type": "FeatureCollection",
  "features": [
    {
      "type": "Feature",
      "properties": {
        "norad_id": 41003,
        "name": "FENGYUN 1C DEB",
        "group": "fengyun-1c-debris",
        "lat": -45.480710102828695,
        "lon": 89.3946897367128,
        "alt_km": 615.2764507111287,
        "timestamp": "2025-12-24T07:45:06.490107+00:00",
        "meta_object_name": "FENGYUN 1C DEB",
        "meta_object_id": "1999-025EXH",
        "meta_epoch": "2025-12-23T12:47:40.559712",
        "meta_mean_motion": 14.73333109,
        "meta_eccentricity": 0.00681083,
        "meta_inclination": 98.9669,
        "meta_ra_of_asc_node": 277.7627,
        "meta_arg_of_pericenter": 258.0215,
        "meta_mean_anomaly": 101.335,
        "meta_ephemeris_type": 0,
        "meta_classification_type": "U",
        "meta_norad_cat_id": 41003,
        "meta_element_set_no": 999,
        "meta_rev_at_epoch": 52579,
        "meta_bstar": 0.0041297781,
        "meta_mean_motion_dot": 0.00027775,
        "meta_mean_motion_ddot": 0,
        "tle_line1": "1 41003U 99025EXH 25357.53310833  .00027775  00000+0  41298-2 0  9994",
        "tle_line2": "2 41003  98.9669 277.7627 0068108 258.0215 101.3350 14.73333109525796"
      },
      "geometry": {
        "type": "Point",
        "coordinates": [
          89.3946897367128,
          -45.480710102828695
        ]
      }
    },
    {
      "type": "Feature",
      "properties": {
        "norad_id": 41006,
        "name": "FENGYUN 1C DEB",
        "group": "fengyun-1c-debris",
        "lat": 55.261052901142385,
        "lon": -145.67373928822363,
        "alt_km": 902.720953322646,
        "timestamp": "2025-12-24T07:45:06.490117+00:00",
        "meta_object_name": "FENGYUN 1C DEB",
        "meta_object_id": "1999-025EXL",
        "meta_epoch": "2025-12-19T21:45:46.059840",
        "meta_mean_motion": 13.85407302,
        "meta_eccentricity": 0.0190575,
        "meta_inclination": 102.3676,
        "meta_ra_of_asc_node": 226.9637,
        "meta_arg_of_pericenter": 351.9089,
        "meta_mean_anomaly": 7.8995,
        "meta_ephemeris_type": 0,
        "meta_classification_type": "U",
        "meta_norad_cat_id": 41006,
        "meta_element_set_no": 999,
        "meta_rev_at_epoch": 57588,
        "meta_bstar": 0.0020631,
        "meta_mean_motion_dot": 2.639e-05,
        "meta_mean_motion_ddot": 0,
        "tle_line1": "1 41006U 99025EXL 25353.90678310  .00002639  00000+0  20631-2 0  9991",
        "tle_line2": "2 41006 102.3676 226.9637 0190575 351.9089   7.8995 13.85407302575889"
      },
      "geometry": {
        "type": "Point",
        "coordinates": [
          -145.67373928822363,
          55.261052901142385
        ]
      }
    },
    {
      "type": "Feature",
      "properties": {
        "norad_id": 41007,
        "name": "FENGYUN 1C DEB",
        "group": "fengyun-1c-debris",
        "lat": -77.86646343407502,
        "lon": 150.91122468858123,
        "alt_km": 993.6512249961452,
        "timestamp": "2025-12-24T07:45:06.490127+00:00",
        "meta_object_name": "FENGYUN 1C DEB",
        "meta_object_id": "1999-025EXM",
        "meta_epoch": "2025-11-29T06:55:22.773792",
        "meta_mean_motion": 13.85678237,
        "meta_eccentricity": 0.01723955,
        "meta_inclination": 99.9731,
        "meta_ra_of_asc_node": 359.205,
        "meta_arg_of_pericenter": 79.2855,
        "meta_mean_anomaly": 282.7657,
        "meta_ephemeris_type": 0,
        "meta_classification_type": "U",
        "meta_norad_cat_id": 41007,
        "meta_element_set_no": 999,
        "meta_rev_at_epoch": 57212,
        "meta_bstar": 0.0017167305,
        "meta_mean_motion_dot": 2.158e-05,
        "meta_mean_motion_ddot": 0,
        "tle_line1": "1 41007U 99025EXM 25333.28845803  .00002158  00000+0  17167-2 0  9990",
        "tle_line2": "2 41007  99.9731 359.2050 0172395  79.2855 282.7657 13.85678237572123"
      },
      "geometry": {
        "type": "Point",
        "coordinates": [
          150.91122468858123,
          -77.86646343407502
        ]
      }
    },
    {
      "type": "Feature",
      "properties": {
        "norad_id": 41011,
        "name": "FENGYUN 1C DEB",
        "group": "fengyun-1c-debris",
        "lat": -80.16364915691777,
        "lon": 155.58478184241793,
        "alt_km": 632.6458761807098,
        "timestamp": "2025-12-24T07:45:06.490137+00:00",
        "meta_object_name": "FENGYUN 1C DEB",
        "meta_object_id": "1999-025EXR",
        "meta_epoch": "2025-12-23T20:30:46.248480",
        "meta_mean_motion": 14.42971367,
        "meta_eccentricity": 0.03093558,
        "meta_inclination": 99.1668,
        "meta_ra_of_asc_node": 43.7219,
        "meta_arg_of_pericenter": 325.2752,
        "meta_mean_anomaly": 32.8581,
        "meta_ephemeris_type": 0,
        "meta_classification_type": "U",
        "meta_norad_cat_id": 41011,
        "meta_element_set_no": 999,
        "meta_rev_at_epoch": 57317,
        "meta_bstar": 0.00060457039,
        "meta_mean_motion_dot": 3.552e-05,
        "meta_mean_motion_ddot": 0,
        "tle_line1": "1 41011U 99025EXR 25357.85470195  .00003552  00000+0  60457-3 0  9992",
        "tle_line2": "2 41011  99.1668  43.7219 0309355 325.2752  32.8581 14.42971367573179"
      },
      "geometry": {
        "type": "Point",
        "coordinates": [
          155.58478184241793,
          -80.16364915691777
        ]
      }
    },
    {
      "type": "Feature",
      "properties": {
        "norad_id": 41018,
        "name": "FENGYUN 1C DEB",
        "group": "fengyun-1c-debris",
        "lat": 60.88076428058627,
        "lon": -75.59823924873646,
        "alt_km": 854.5559542438032,
        "timestamp": "2025-12-24T07:45:06.490147+00:00",
        "meta_object_name": "FENGYUN 1C DEB",
        "meta_object_id": "1999-025EXY",
        "meta_epoch": "2025-12-15T01:30:35.121600",
        "meta_mean_motion": 13.52371588,
        "meta_eccentricity": 0.03049079,
        "meta_inclination": 99.9356,
        "meta_ra_of_asc_node": 293.4577,
        "meta_arg_of_pericenter": 112.862,
        "meta_mean_anomaly": 250.5013,
        "meta_ephemeris_type": 0,
        "meta_classification_type": "U",
        "meta_norad_cat_id": 41018,
        "meta_element_set_no": 999,
        "meta_rev_at_epoch": 88206,
        "meta_bstar": 0.0022149287,
        "meta_mean_motion_dot": 1.917e-05,
        "meta_mean_motion_ddot": 0,
        "tle_line1": "1 41018U 99025EXY 25349.06290650  .00001917  00000+0  22149-2 0  9997",
        "tle_line2": "2 41018  99.9356 293.4577 0304907 112.8620 250.5013 13.52371588882060"
      },
      "geometry": {
        "type": "Point",
        "coordinates": [
          -75.59823924873646,
          60.88076428058627
        ]
      }
    },
    {
      "type": "Feature",
      "properties": {
        "norad_id": 41822,
        "name": "FENGYUN 1C DEB",
        "group": "fengyun-1c-debris",
        "lat": -60.43153811740006,
        "lon": -131.24620570701958,
        "alt_km": 792.2318801824249,
        "timestamp": "2025-12-24T07:45:06.490157+00:00",
        "meta_object_name": "FENGYUN 1C DEB",
        "meta_object_id": "1999-025EXZ",
        "meta_epoch": "2025-12-23T22:11:48.610752",
        "meta_mean_motion": 14.24874026,
        "meta_eccentricity": 0.00559361,
        "meta_inclination": 98.7312,
        "meta_ra_of_asc_node": 64.0738,
        "meta_arg_of_pericenter": 188.7496,
        "meta_mean_anomaly": 171.2713,
        "meta_ephemeris_type": 0,
        "meta_classification_type": "U",
        "meta_norad_cat_id": 41822,
        "meta_element_set_no": 999,
        "meta_rev_at_epoch": 47532,
        "meta_bstar": 0.0015826003,
        "meta_mean_motion_dot": 3.713e-05,
        "meta_mean_motion_ddot": 0,
        "tle_line1": "1 41822U 99025EXZ 25357.92486818  .00003713  00000+0  15826-2 0  9997",
        "tle_line2": "2 41822  98.7312  64.0738 0055936 188.7496 171.2713 14.24874026475329"
      },
      "geometry": {
        "type": "Point",
        "coordinates": [
          -131.24620570701958,
          -60.43153811740006
        ]
      }
    },
    {
      "type": "Feature",
      "properties": {
        "norad_id": 41823,
        "name": "FENGYUN 1C DEB",
        "group": "fengyun-1c-debris",
        "lat": -76.22347797602453,
        "lon": -157.20311648040803,
        "alt_km": 803.0928933134992,
        "timestamp": "2025-12-24T07:45:06.490167+00:00",
        "meta_object_name": "FENGYUN 1C DEB",
        "meta_object_id": "1999-025EYA",
        "meta_epoch": "2025-12-22T15:44:30.681024",
        "meta_mean_motion": 14.23579214,
        "meta_eccentricity": 0.00552111,
        "meta_inclination": 98.7196,
        "meta_ra_of_asc_node": 59.8948,
        "meta_arg_of_pericenter": 199.8824,
        "meta_mean_anomaly": 160.0203,
        "meta_ephemeris_type": 0,
        "meta_classification_type": "U",
        "meta_norad_cat_id": 41823,
        "meta_element_set_no": 999,
        "meta_rev_at_epoch": 47499,
        "meta_bstar": 0.0013528564,
        "meta_mean_motion_dot": 3.087e-05,
        "meta_mean_motion_ddot": 0,
        "tle_line1": "1 41823U 99025EYA 25356.65591066  .00003087  00000+0  13529-2 0  9991",
        "tle_line2": "2 41823  98.7196  59.8948 0055211 199.8824 160.0203 14.23579214474991"
      },
      "geometry": {
        "type": "Point",
        "coordinates": [
          -157.20311648040803,
          -76.22347797602453
        ]
      }
    }
  ]
}